{
    "links": {
        "self": "http://www.neowsapp.com/rest/v1/neo/3740812?api_key=iIulBulltgU6a56xZRHN4H3l9WmuAYTsLGpBGhQ2"
    },
    "id": "3740812",
    "neo_reference_id": "3740812",
    "name": "(2016 BK1)",
    "designation": "2016 BK1",
    "nasa_jpl_url": "http://ssd.jpl.nasa.gov/sbdb.cgi?sstr=3740812",
    "absolute_magnitude_h": 24.8,
    "estimated_diameter": {
        "kilometers": {
            "estimated_diameter_min": 0.0291443905,
            "estimated_diameter_max": 0.0651688382
        },
        "meters": {
            "estimated_diameter_min": 29.1443904535,
            "estimated_diameter_max": 65.1688382168
        },
        "miles": {
            "estimated_diameter_min": 0.018109479,
            "estimated_diameter_max": 0.0404940262
        },
        "feet": {
            "estimated_diameter_min": 95.6180819754,
            "estimated_diameter_max": 213.8085311752
        }
    },
    "is_potentially_hazardous_asteroid": false,
    "close_approach_data": [
        {
            "close_approach_date": "2016-01-17",
            "close_approach_date_full": "2016-Jan-17 09:55",
            "epoch_date_close_approach": 1453024500000,
            "relative_velocity": {
                "kilometers_per_second": "8.434049615",
                "kilometers_per_hour": "30362.5786138578",
                "miles_per_hour": "18866.1255837051"
            },
            "miss_distance": {
                "astronomical": "0.0222152174",
                "lunar": "8.6417195686",
                "kilometers": "3323349.204626938",
                "miles": "2065033.4388822244"
            },
            "orbiting_body": "Earth"
        },
        {
            "close_approach_date": "2037-11-19",
            "close_approach_date_full": "2037-Nov-19 17:41",
            "epoch_date_close_approach": 2142265260000,
            "relative_velocity": {
                "kilometers_per_second": "12.5956378696",
                "kilometers_per_hour": "45344.2963306622",
                "miles_per_hour": "28175.1823505718"
            },
            "miss_distance": {
                "astronomical": "0.1602129118",
                "lunar": "62.3228226902",
                "kilometers": "23967510.351777866",
                "miles": "14892720.3479759108"
            },
            "orbiting_body": "Earth"
        }
    ],
    "orbital_data": {
        "orbit_id": "9",
        "orbit_determination_date": "2017-04-06 08:28:57",
        "first_observation_date": "2016-01-20",
        "last_observation_date": "2016-02-09",
        "data_arc_in_days": 20,
        "observations_used": 72,
        "orbit_uncertainty": "7",
        "minimum_orbit_intersection": ".0148892",
        "jupiter_tisserand_invariant": "3.285",
        "epoch_osculation": "2459000.5",
        "eccentricity": ".5888816332249766",
        "semi_major_axis": "2.372380058272052",
        "inclination": ".9384394378692926",
        "ascending_node_longitude": "17.00234045868181",
        "orbital_period": "1334.672843672665",
        "perihelion_distance": ".975329014926441",
        "perihelion_argument": "79.88597953724016",
        "aphelion_distance": "3.769431101617663",
        "perihelion_time": "2458724.020044043506",
        "mean_anomaly": "74.57466795417064",
        "mean_motion": ".2697290213902724",
        "equinox": "J2000",
        "orbit_class": {
            "orbit_class_type": "APO",
            "orbit_class_description": "Near-Earth asteroid orbits which cross the Earth’s orbit similar to that of 1862 Apollo",
            "orbit_class_range": "a (semi-major axis) > 1.0 AU; q (perihelion) < 1.017 AU"
        }
    },
    "is_sentry_object": false
}